OBJECT_NAME,OBJECT_ID,EPOCH,MEAN_MOTION,ECCENTRICITY,INCLINATION,RA_OF_ASC_NODE,ARG_OF_PERICENTER,MEAN_ANOMALY,EPHEMERIS_TYPE,CLASSIFICATION_TYPE,NORAD_CAT_ID,ELEMENT_SET_NO,REV_AT_EPOCH,BSTAR,MEAN_MOTION_DOT,MEAN_MOTION_DDOT
SAUDISAT 1C (SO-50),2002-058C,2026-07-01T22:08:52.835136,14.83077352,.00749081,64.5520,83.3935,259.7212,99.5442,0,U,27607,999,26664,.13243582E-3,.977E-5,0
SAUDISAT 2,2004-025F,2026-07-01T22:25:40.368000,14.56692213,.00235021,98.5510,183.2976,250.5472,109.3185,0,U,28371,999,16789,.71011245E-4,.268E-5,0
SAUDISAT 3,2007-012B,2026-07-01T19:28:01.454016,14.71433828,.00146457,98.1461,133.2217,175.7209,184.4125,0,U,31118,999,2989,.52656955E-4,.276E-5,0
PISAT,2016-059B,2026-07-01T22:11:59.790048,14.69009529,.0029608,97.8182,182.7446,155.7051,204.5559,0,U,41784,999,52190,.18560471E-3,.1048E-4,0
FLYING LAPTOP,2017-042G,2026-07-01T23:35:37.811328,15.01241953,.00199841,97.4750,337.9527,74.4276,285.9153,0,U,42831,999,48867,.38725935E-3,.4938E-4,0
SALSAT,2020-068K,2026-07-01T22:15:07.293600,15.30008157,.00080276,97.8846,186.8910,245.2054,114.8351,0,U,46495,999,31761,.30790672E-3,.8869E-4,0
